OBJECT_NAME,OBJECT_ID,EPOCH,MEAN_MOTION,ECCENTRICITY,INCLINATION,RA_OF_ASC_NODE,ARG_OF_PERICENTER,MEAN_ANOMALY,EPHEMERIS_TYPE,CLASSIFICATION_TYPE,NORAD_CAT_ID,ELEMENT_SET_NO,REV_AT_EPOCH,BSTAR,MEAN_MOTION_DOT,MEAN_MOTION_DDOT
SKYSAT-C1,2016-040C,2026-07-20T08:43:47.597376,15.36798698,.00006316,96.9554,231.2938,198.3803,161.7420,0,U,41601,999,56296,.14048123E-3,.4976E-4,0
LAPAN-A3,2016-040E,2026-07-20T22:23:44.361312,15.33299968,.00083449,97.1509,196.9777,250.8368,109.1972,0,U,41603,999,55998,.62833015E-4,.1948E-4,0
GAOFEN-3,2016-049A,2026-07-20T22:34:11.083584,14.42218890,.00017696,98.4023,209.2176,84.1586,275.9805,0,U,41727,999,52351,.768284E-5,-.18E-6,0
SKYSAT-C4,2016-058B,2026-07-20T20:34:51.532896,15.49556266,.00035568,96.9174,222.2407,110.3890,249.7744,0,U,41771,999,55068,.22684765E-3,.12435E-3,0
SKYSAT-C5,2016-058C,2026-07-20T16:35:59.881920,15.33763083,.00031402,97.0451,240.8233,147.2624,212.8814,0,U,41772,999,54888,.13426941E-3,.431E-4,0
SKYSAT-C2,2016-058D,2026-07-20T00:30:42.511104,15.42746945,.00008112,97.0163,221.8941,320.8207,39.2982,0,U,41773,999,55011,.16309524E-3,.7045E-4,0
SKYSAT-C3,2016-058E,2026-07-20T01:32:43.850688,15.53846132,.00027191,96.8998,230.6733,127.1966,232.9537,0,U,41774,999,55121,.22690805E-3,.14503E-3,0
ALSAT-1B,2016-059C,2026-07-20T22:47:38.012064,14.72297001,.00106664,97.7761,209.2574,113.6829,246.5500,0,U,41785,999,52554,.41075745E-4,.213E-5,0
PATHFINDER 1,2016-059E,2026-07-20T22:50:37.621248,14.67697522,.00299602,97.8180,199.7064,98.2539,262.2066,0,U,41787,999,52466,.74396132E-4,.38E-5,0
SCATSAT 1,2016-059H,2026-07-20T18:10:19.373952,14.79595605,.00555824,98.1173,265.8672,138.9504,221.5910,0,U,41790,999,10655,.98579046E-4,.701E-5,0
GOKTURK 1A,2016-073A,2026-07-20T23:14:50.707680,14.62795622,.00014331,98.1201,96.1063,80.9235,279.2128,0,U,41875,999,51376,.42178558E-4,.169E-5,0
RESOURCESAT-2A,2016-074A,2026-07-20T22:11:37.720896,14.21608319,.00020588,98.7511,275.1512,15.3631,344.7609,0,U,41877,999,49909,-.99239763E-4,-.262E-5,0
CARTOSAT-2D,2017-008A,2026-07-20T22:42:48.348288,15.19306857,.00064871,97.4087,260.6181,122.9993,237.1866,0,U,41948,999,52270,.46793626E-4,.921E-5,0
SENTINEL-2B,2017-013A,2026-07-20T21:55:53.163264,14.30815337,.00012394,98.5677,276.2104,94.2071,265.9254,0,U,42063,999,48946,-.47162075E-4,-.167E-5,0
CARTOSAT-2E,2017-036C,2026-07-20T23:08:33.092160,15.19277896,.00039596,97.4253,261.2065,169.3131,190.8189,0,U,42767,999,50327,.83327998E-4,.169E-4,0
FORMOSAT-5,2017-049A,2026-07-20T21:55:46.839648,14.50908777,.00109342,98.2242,276.4724,345.9762,14.1128,0,U,42920,999,47156,.20247726E-4,.36E-6,0
SENTINEL-5P,2017-064A,2026-07-20T19:46:02.518464,14.19523916,.00011819,98.7929,143.7171,92.5876,267.5435,0,U,42969,999,45433,.3074592E-4,.21E-6,0
SKYSAT-C11,2017-068A,2026-07-20T21:19:34.120704,15.59533664,.00014871,97.4389,352.2374,152.1856,207.9480,0,U,42987,999,48849,.28234285E-3,.22322E-3,0
SKYSAT-C10,2017-068B,2026-07-20T22:21:10.319616,15.35188117,.00015594,97.4543,339.1285,110.5311,249.6100,0,U,42988,999,48753,.22357225E-3,.7555E-4,0
SKYSAT-C9,2017-068C,2026-07-20T22:03:43.727904,15.42300468,.00081461,97.4465,340.3789,25.7743,334.3909,0,U,42989,999,48795,.2123489E-3,.9064E-4,0
SKYSAT-C8,2017-068D,2026-07-20T21:58:53.507712,15.37560720,.00013088,97.4560,339.0428,107.1679,252.9709,0,U,42990,999,48749,.20151303E-3,.7342E-4,0
SKYSAT-C7,2017-068E,2026-07-20T21:51:12.610368,15.37509962,.00051742,97.4572,340.0294,1.1896,358.9360,0,U,42991,999,48755,.19633447E-3,.7142E-4,0
SKYSAT-C6,2017-068F,2026-07-20T22:22:58.616832,15.34229924,.0004939,97.4610,339.8793,74.5210,285.6578,0,U,42992,999,48749,.19491897E-3,.6379E-4,0
CARTOSAT-2F,2018-004A,2026-07-20T22:20:59.547264,15.19193815,.00027808,97.4765,261.2325,124.3869,235.7629,0,U,43111,999,47245,.23742244E-4,.432E-5,0
GAOFEN-1 02,2018-031A,2026-07-20T23:32:00.122208,14.76474320,.00015177,98.0505,264.4100,248.4722,111.6326,0,U,43259,999,44768,-.16815844E-4,-.169E-5,0
GAOFEN-1 03,2018-031B,2026-07-20T23:00:30.826368,14.76467308,.00019477,98.0499,264.2427,357.8383,2.2818,0,U,43260,999,44767,.6243341E-4,.383E-5,0
GAOFEN-1 04,2018-031D,2026-07-20T22:25:36.386688,14.76441395,.00009163,98.0506,264.4136,52.7487,307.3806,0,U,43262,999,44766,.37752991E-4,.211E-5,0
SENTINEL-3B,2018-039A,2026-07-20T18:45:56.832192,14.26737354,.00012677,98.6231,268.8292,118.6255,241.5053,0,U,43437,999,42891,.32817374E-4,.36E-6,0
GAOFEN-5 01,2018-043A,2026-07-20T21:40:19.288128,14.60625801,.00017567,98.4595,174.2023,19.3304,340.7962,0,U,43461,999,43661,.49628773E-4,.192E-5,0
GAOFEN-6,2018-048A,2026-07-20T22:58:26.173632,14.76387969,.00120172,98.0949,264.6726,65.5929,294.6533,0,U,43484,999,43837,.67703415E-4,.418E-5,0
